{
  "type": "FeatureCollection",
  "features": [
    {
      "type": "Feature",
      "properties": {
        "norad_id": 34492,
        "name": "IRIDIUM 33 DEB",
        "group": "iridium-33-debris",
        "lat": -38.80768149148271,
        "lon": -31.65255349626952,
        "alt_km": 857.5081848136106,
        "timestamp": "2025-12-21T05:44:51.972624+00:00",
        "meta_object_name": "IRIDIUM 33 DEB",
        "meta_object_id": "1997-051GH",
        "meta_epoch": "2025-12-19T10:45:18.347328",
        "meta_mean_motion": 14.25846982,
        "meta_eccentricity": 0.0188646,
        "meta_inclination": 86.4707,
        "meta_ra_of_asc_node": 331.9164,
        "meta_arg_of_pericenter": 216.3823,
        "meta_mean_anomaly": 273.3437,
        "meta_ephemeris_type": 0,
        "meta_classification_type": "U",
        "meta_norad_cat_id": 34492,
        "meta_element_set_no": 999,
        "meta_rev_at_epoch": 85154,
        "meta_bstar": 0.0022012,
        "meta_mean_motion_dot": 6.332e-05,
        "meta_mean_motion_ddot": 0,
        "tle_line1": "1 34492U 97051GH  25353.44812902  .00006332  00000+0  22012-2 0  9994",
        "tle_line2": "2 34492  86.4707 331.9164 0188646 216.3823 273.3437 14.25846982851542"
      },
      "geometry": {
        "type": "Point",
        "coordinates": [
          -31.65255349626952,
          -38.80768149148271
        ]
      }
    },
    {
      "type": "Feature",
      "properties": {
        "norad_id": 34497,
        "name": "IRIDIUM 33 DEB",
        "group": "iridium-33-debris",
        "lat": -67.13641390725985,
        "lon": -122.34749729568668,
        "alt_km": 782.9109301392882,
        "timestamp": "2025-12-21T05:44:51.972637+00:00",
        "meta_object_name": "IRIDIUM 33 DEB",
        "meta_object_id": "1997-051GN",
        "meta_epoch": "2025-12-19T10:35:53.025216",
        "meta_mean_motion": 14.2747197,
        "meta_eccentricity": 0.0078309,
        "meta_inclination": 86.2774,
        "meta_ra_of_asc_node": 49.5385,
        "meta_arg_of_pericenter": 317.619,
        "meta_mean_anomaly": 57.0969,
        "meta_ephemeris_type": 0,
        "meta_classification_type": "U",
        "meta_norad_cat_id": 34497,
        "meta_element_set_no": 999,
        "meta_rev_at_epoch": 86979,
        "meta_bstar": 0.00044435,
        "meta_mean_motion_dot": 1.145e-05,
        "meta_mean_motion_ddot": 0,
        "tle_line1": "1 34497U 97051GN  25353.44158594  .00001145  00000+0  44435-3 0  9990",
        "tle_line2": "2 34497  86.2774  49.5385 0078309 317.6190  57.0969 14.27471970869798"
      },
      "geometry": {
        "type": "Point",
        "coordinates": [
          -122.34749729568668,
          -67.13641390725985
        ]
      }
    },
    {
      "type": "Feature",
      "properties": {
        "norad_id": 34508,
        "name": "IRIDIUM 33 DEB",
        "group": "iridium-33-debris",
        "lat": 21.33759112225645,
        "lon": 100.46071437091422,
        "alt_km": 789.9159127406838,
        "timestamp": "2025-12-21T05:44:51.972647+00:00",
        "meta_object_name": "IRIDIUM 33 DEB",
        "meta_object_id": "1997-051GZ",
        "meta_epoch": "2025-12-20T17:57:40.605696",
        "meta_mean_motion": 14.38482404,
        "meta_eccentricity": 0.00666151,
        "meta_inclination": 86.371,
        "meta_ra_of_asc_node": 99.2483,
        "meta_arg_of_pericenter": 147.2319,
        "meta_mean_anomaly": 213.3038,
        "meta_ephemeris_type": 0,
        "meta_classification_type": "U",
        "meta_norad_cat_id": 34508,
        "meta_element_set_no": 999,
        "meta_rev_at_epoch": 87424,
        "meta_bstar": 0.00079549116,
        "meta_mean_motion_dot": 2.512e-05,
        "meta_mean_motion_ddot": 0,
        "tle_line1": "1 34508U 97051GZ  25354.74838664  .00002512  00000+0  79549-3 0  9993",
        "tle_line2": "2 34508  86.3710  99.2483 0066615 147.2319 213.3038 14.38482404874246"
      },
      "geometry": {
        "type": "Point",
        "coordinates": [
          100.46071437091422,
          21.33759112225645
        ]
      }
    },
    {
      "type": "Feature",
      "properties": {
        "norad_id": 34521,
        "name": "IRIDIUM 33 DEB",
        "group": "iridium-33-debris",
        "lat": -61.83445598509234,
        "lon": -146.40137025721612,
        "alt_km": 688.5861756259055,
        "timestamp": "2025-12-21T05:44:51.972657+00:00",
        "meta_object_name": "IRIDIUM 33 DEB",
        "meta_object_id": "1997-051HN",
        "meta_epoch": "2025-12-20T20:26:24.361440",
        "meta_mean_motion": 14.63427269,
        "meta_eccentricity": 0.00025589,
        "meta_inclination": 86.3787,
        "meta_ra_of_asc_node": 26.9765,
        "meta_arg_of_pericenter": 179.8016,
        "meta_mean_anomaly": 180.3197,
        "meta_ephemeris_type": 0,
        "meta_classification_type": "U",
        "meta_norad_cat_id": 34521,
        "meta_element_set_no": 999,
        "meta_rev_at_epoch": 88591,
        "meta_bstar": 0.00054051978,
        "meta_mean_motion_dot": 2.817e-05,
        "meta_mean_motion_ddot": 0,
        "tle_line1": "1 34521U 97051HN  25354.85167085  .00002817  00000+0  54052-3 0  9992",
        "tle_line2": "2 34521  86.3787  26.9765 0002558 179.8016 180.3197 14.63427269885917"
      },
      "geometry": {
        "type": "Point",
        "coordinates": [
          -146.40137025721612,
          -61.83445598509234
        ]
      }
    },
    {
      "type": "Feature",
      "properties": {
        "norad_id": 34525,
        "name": "IRIDIUM 33 DEB",
        "group": "iridium-33-debris",
        "lat": 24.71712257855459,
        "lon": -138.45776948809535,
        "alt_km": 747.4856525992336,
        "timestamp": "2025-12-21T05:44:51.972667+00:00",
        "meta_object_name": "IRIDIUM 33 DEB",
        "meta_object_id": "1997-051HS",
        "meta_epoch": "2025-12-20T04:21:41.244768",
        "meta_mean_motion": 14.42921764,
        "meta_eccentricity": 0.00064705,
        "meta_inclination": 86.3721,
        "meta_ra_of_asc_node": 43.6672,
        "meta_arg_of_pericenter": 78.1419,
        "meta_mean_anomaly": 345.8375,
        "meta_ephemeris_type": 0,
        "meta_classification_type": "U",
        "meta_norad_cat_id": 34525,
        "meta_element_set_no": 999,
        "meta_rev_at_epoch": 88195,
        "meta_bstar": 0.00024009823,
        "meta_mean_motion_dot": 8.22e-06,
        "meta_mean_motion_ddot": 0,
        "tle_line1": "1 34525U 97051HS  25354.18172737  .00000822  00000+0  24010-3 0  9997",
        "tle_line2": "2 34525  86.3721  43.6672 0006470  78.1419 345.8375 14.42921764881959"
      },
      "geometry": {
        "type": "Point",
        "coordinates": [
          -138.45776948809535,
          24.71712257855459
        ]
      }
    },
    {
      "type": "Feature",
      "properties": {
        "norad_id": 34529,
        "name": "IRIDIUM 33 DEB",
        "group": "iridium-33-debris",
        "lat": -20.40266030450793,
        "lon": 30.432853458732538,
        "alt_km": 765.8175284045847,
        "timestamp": "2025-12-21T05:44:51.972678+00:00",
        "meta_object_name": "IRIDIUM 33 DEB",
        "meta_object_id": "1997-051HW",
        "meta_epoch": "2025-12-20T19:50:25.863936",
        "meta_mean_motion": 14.4062162,
        "meta_eccentricity": 0.00057731,
        "meta_inclination": 86.3633,
        "meta_ra_of_asc_node": 31.9643,
        "meta_arg_of_pericenter": 152.9902,
        "meta_mean_anomaly": 207.1599,
        "meta_ephemeris_type": 0,
        "meta_classification_type": "U",
        "meta_norad_cat_id": 34529,
        "meta_element_set_no": 999,
        "meta_rev_at_epoch": 88258,
        "meta_bstar": 8.1123499e-05,
        "meta_mean_motion_dot": 2.79e-06,
        "meta_mean_motion_ddot": 0,
        "tle_line1": "1 34529U 97051HW  25354.82668824  .00000279  00000+0  81123-4 0  9994",
        "tle_line2": "2 34529  86.3633  31.9643 0005773 152.9902 207.1599 14.40621620882580"
      },
      "geometry": {
        "type": "Point",
        "coordinates": [
          30.432853458732538,
          -20.40266030450793
        ]
      }
    },
    {
      "type": "Feature",
      "properties": {
        "norad_id": 34538,
        "name": "IRIDIUM 33 DEB",
        "group": "iridium-33-debris",
        "lat": -59.089161095805984,
        "lon": -171.92228262558137,
        "alt_km": 745.1634151665512,
        "timestamp": "2025-12-21T05:44:51.972688+00:00",
        "meta_object_name": "IRIDIUM 33 DEB",
        "meta_object_id": "1997-051JF",
        "meta_epoch": "2025-12-20T05:54:09.537408",
        "meta_mean_motion": 14.42688568,
        "meta_eccentricity": 0.00321834,
        "meta_inclination": 86.2759,
        "meta_ra_of_asc_node": 2.2678,
        "meta_arg_of_pericenter": 302.109,
        "meta_mean_anomaly": 180.5468,
        "meta_ephemeris_type": 0,
        "meta_classification_type": "U",
        "meta_norad_cat_id": 34538,
        "meta_element_set_no": 999,
        "meta_rev_at_epoch": 87864,
        "meta_bstar": 0.00064183465,
        "meta_mean_motion_dot": 2.166e-05,
        "meta_mean_motion_ddot": 0,
        "tle_line1": "1 34538U 97051JF  25354.24594372  .00002166  00000+0  64183-3 0  9999",
        "tle_line2": "2 34538  86.2759   2.2678 0032183 302.1090 180.5468 14.42688568878646"
      },
      "geometry": {
        "type": "Point",
        "coordinates": [
          -171.92228262558137,
          -59.089161095805984
        ]
      }
    }
  ]
}